start=new Date('2022-09-23T00:00:00.000Z').valueOf();
sats=[{"TLE_LINE1":"1 47374U 21005AB  22265.67240114 -.00000346  00000-0 -43592-5 0  9998","SITE":"AFETR","DECAY_DATE":null,"PERIOD":"95.592","MEAN_ANOMALY":"288.6044","CENTER_NAME":"EARTH","RA_OF_ASC_NODE":"336.0027","OBJECT_ID":"2021-005AB","MEAN_MOTION_DOT":"-0.00000346","REF_FRAME":"TEME","APOAPSIS":"548.216","EPOCH":"2022-09-22T16:08:15.458496","GP_ID":"213259659","NORAD_CAT_ID":"47374","ECCENTRICITY":"0.00014420","FILE":"3580594","ARG_OF_PERICENTER":"71.5102","PERIAPSIS":"546.218","COUNTRY_CODE":"US","BSTAR":"-0.00000435920000","TLE_LINE2":"2 47374  53.0556 336.0027 0001442  71.5102 288.6044 15.06398856 92520","MEAN_MOTION_DDOT":"0.0000000000000","OBJECT_NAME":"STARLINK-2093","REV_AT_EPOCH":"9252","INCLINATION":"53.0556","OBJECT_TYPE":"PAYLOAD","ELEMENT_SET_NO":"999","TIME_SYSTEM":"UTC","MEAN_MOTION":"15.06398856","LAUNCH_DATE":"2021-01-20","RCS_SIZE":"LARGE","CLASSIFICATION_TYPE":"U","SEMIMAJOR_AXIS":"6925.352","MEAN_ELEMENT_THEORY":"SGP4","EPHEMERIS_TYPE":"0"},{"MEAN_MOTION":"15.06396655","TIME_SYSTEM":"UTC","MEAN_MOTION_DDOT":"0.0000000000000","TLE_LINE2":"2 47375  53.0555 336.2891 0001548  71.9832 288.1325 15.06396655 92513","OBJECT_NAME":"STARLINK-2094","INCLINATION":"53.0555","REV_AT_EPOCH":"9251","ELEMENT_SET_NO":"999","OBJECT_TYPE":"PAYLOAD","MEAN_ELEMENT_THEORY":"SGP4","SEMIMAJOR_AXIS":"6925.359","EPHEMERIS_TYPE":"0","RCS_SIZE":"LARGE","CLASSIFICATION_TYPE":"U","LAUNCH_DATE":"2021-01-20","RA_OF_ASC_NODE":"336.2891","OBJECT_ID":"2021-005AC","MEAN_MOTION_DOT":"0.00001424","APOAPSIS":"548.296","REF_FRAME":"TEME","TLE_LINE1":"1 47375U 21005AC  22265.61068501  .00001424  00000-0  11447-3 0  9999","SITE":"AFETR","MEAN_ANOMALY":"288.1325","CENTER_NAME":"EARTH","DECAY_DATE":null,"PERIOD":"95.592","ARG_OF_PERICENTER":"71.9832","COUNTRY_CODE":"US","PERIAPSIS":"546.152","BSTAR":"0.00011447000000","GP_ID":"213259417","EPOCH":"2022-09-22T14:39:23.184864","ECCENTRICITY":"0.00015480","NORAD_CAT_ID":"47375","FILE":"3580594"},{"ARG_OF_PERICENTER":"71.2476","COUNTRY_CODE":"US","PERIAPSIS":"545.799","BSTAR":"-0.00028894000000","GP_ID":"213228118","EPOCH":"2022-09-22T11:33:35.924256","ECCENTRICITY":"0.00019430","NORAD_CAT_ID":"47376","FILE":"3580347","RA_OF_ASC_NODE":"336.8694","OBJECT_ID":"2021-005AD","MEAN_MOTION_DOT":"-0.00004586","APOAPSIS":"548.490","REF_FRAME":"TEME","TLE_LINE1":"1 47376U 21005AD  22265.48166579 -.00004586  00000-0 -28894-3 0  9997","SITE":"AFETR","CENTER_NAME":"EARTH","MEAN_ANOMALY":"288.8724","PERIOD":"95.591","DECAY_DATE":null,"MEAN_ELEMENT_THEORY":"SGP4","SEMIMAJOR_AXIS":"6925.280","EPHEMERIS_TYPE":"0","RCS_SIZE":"LARGE","CLASSIFICATION_TYPE":"U","LAUNCH_DATE":"2021-01-20","MEAN_MOTION":"15.06422408","TIME_SYSTEM":"UTC","OBJECT_NAME":"STARLINK-2096","TLE_LINE2":"2 47376  53.0533 336.8694 0001943  71.2476 288.8724 15.06422408 92496","MEAN_MOTION_DDOT":"0.0000000000000","INCLINATION":"53.0533","REV_AT_EPOCH":"9249","ELEMENT_SET_NO":"999","OBJECT_TYPE":"PAYLOAD"},{"RA_OF_ASC_NODE":"336.9381","OBJECT_ID":"2021-005AE","MEAN_MOTION_DOT":"-0.00016983","APOAPSIS":"547.291","REF_FRAME":"TEME","TLE_LINE1":"1 47377U 21005AE  22265.46690812 -.00016983  00000-0 -11216-2 0  9991","SITE":"AFETR","CENTER_NAME":"EARTH","MEAN_ANOMALY":"279.0020","DECAY_DATE":null,"PERIOD":"95.587","ARG_OF_PERICENTER":"81.1020","COUNTRY_CODE":"US","PERIAPSIS":"546.659","BSTAR":"-0.00112160000000","EPOCH":"2022-09-22T11:12:20.861568","GP_ID":"213226866","ECCENTRICITY":"0.00004560","NORAD_CAT_ID":"47377","FILE":"3580347","MEAN_MOTION":"15.06477874","TIME_SYSTEM":"UTC","MEAN_MOTION_DDOT":"0.0000000000000","TLE_LINE2":"2 47377  53.0523 336.9381 0000456  81.1020 279.0020 15.06477874 92491","OBJECT_NAME":"STARLINK-2097","INCLINATION":"53.0523","REV_AT_EPOCH":"9249","ELEMENT_SET_NO":"999","OBJECT_TYPE":"PAYLOAD","MEAN_ELEMENT_THEORY":"SGP4","SEMIMAJOR_AXIS":"6925.110","EPHEMERIS_TYPE":"0","CLASSIFICATION_TYPE":"U","RCS_SIZE":"LARGE","LAUNCH_DATE":"2021-01-20"},{"TIME_SYSTEM":"UTC","MEAN_MOTION":"15.06409477","TLE_LINE2":"2 47378  53.0538 297.2778 0001140  67.1642 292.9467 15.06409477 93047","OBJECT_NAME":"STARLINK-2098","MEAN_MOTION_DDOT":"0.0000000000000","OBJECT_TYPE":"PAYLOAD","ELEMENT_SET_NO":"999","INCLINATION":"53.0538","REV_AT_EPOCH":"9304","EPHEMERIS_TYPE":"0","SEMIMAJOR_AXIS":"6925.320","MEAN_ELEMENT_THEORY":"SGP4","LAUNCH_DATE":"2021-01-20","RCS_SIZE":"LARGE","CLASSIFICATION_TYPE":"U","MEAN_MOTION_DOT":"-0.00005914","OBJECT_ID":"2021-005AF","RA_OF_ASC_NODE":"297.2778","REF_FRAME":"TEME","APOAPSIS":"547.974","SITE":"AFETR","TLE_LINE1":"1 47378U 21005AF  22265.39321770 -.00005914  00000-0 -37838-3 0  9999","DECAY_DATE":null,"PERIOD":"95.592","MEAN_ANOMALY":"292.9467","CENTER_NAME":"EARTH","PERIAPSIS":"546.395","COUNTRY_CODE":"US","ARG_OF_PERICENTER":"67.1642","BSTAR":"-0.00037838000000","GP_ID":"213227616","EPOCH":"2022-09-22T09:26:14.009280","FILE":"3580347","NORAD_CAT_ID":"47378","ECCENTRICITY":"0.00011400"},{"ARG_OF_PERICENTER":"69.8670","COUNTRY_CODE":"US","PERIAPSIS":"546.060","BSTAR":"0.00013034000000","EPOCH":"2022-09-22T19:10:04.347552","GP_ID":"213259910","ECCENTRICITY":"0.00016620","NORAD_CAT_ID":"47379","FILE":"3580594","RA_OF_ASC_NODE":"295.4594","OBJECT_ID":"2021-005AG","MEAN_MOTION_DOT":"0.00001660","APOAPSIS":"548.362","REF_FRAME":"TEME","TLE_LINE1":"1 47379U 21005AG  22265.79866143  .00001660  00000-0  13034-3 0  9996","SITE":"AFETR","MEAN_ANOMALY":"290.2497","CENTER_NAME":"EARTH","PERIOD":"95.592","DECAY_DATE":null,"MEAN_ELEMENT_THEORY":"SGP4","SEMIMAJOR_AXIS":"6925.346","EPHEMERIS_TYPE":"0","RCS_SIZE":"LARGE","CLASSIFICATION_TYPE":"U","LAUNCH_DATE":"2021-01-20","MEAN_MOTION":"15.06400743","TIME_SYSTEM":"UTC","OBJECT_NAME":"STARLINK-2099","TLE_LINE2":"2 47379  53.0542 295.4594 0001662  69.8670 290.2497 15.06400743 93106","MEAN_MOTION_DDOT":"0.0000000000000","INCLINATION":"53.0542","REV_AT_EPOCH":"9310","ELEMENT_SET_NO":"999","OBJECT_TYPE":"PAYLOAD"},{"OBJECT_NAME":"STARLINK-2100","TLE_LINE2":"2 47380  53.0563 305.3125 0001476  62.3213 297.7925 15.06389987 92974","MEAN_MOTION_DDOT":"0.0000000000000","ELEMENT_SET_NO":"999","OBJECT_TYPE":"PAYLOAD","REV_AT_EPOCH":"9297","INCLINATION":"53.0563","MEAN_MOTION":"15.06389987","TIME_SYSTEM":"UTC","CLASSIFICATION_TYPE":"U","RCS_SIZE":"LARGE","LAUNCH_DATE":"2021-01-20","EPHEMERIS_TYPE":"0","MEAN_ELEMENT_THEORY":"SGP4","SEMIMAJOR_AXIS":"6925.379","SITE":"AFETR","TLE_LINE1":"1 47380U 21005AH  22265.82724216  .00000911  00000-0  80050-4 0  9997","MEAN_ANOMALY":"297.7925","CENTER_NAME":"EARTH","DECAY_DATE":null,"PERIOD":"95.593","OBJECT_ID":"2021-005AH","MEAN_MOTION_DOT":"0.00000911","RA_OF_ASC_NODE":"305.3125","APOAPSIS":"548.266","REF_FRAME":"TEME","GP_ID":"213258658","EPOCH":"2022-09-22T19:51:13.722624","FILE":"3580594","ECCENTRICITY":"0.00014760","NORAD_CAT_ID":"47380","COUNTRY_CODE":"US","PERIAPSIS":"546.222","ARG_OF_PERICENTER":"62.3213","BSTAR":"0.00008005000000"},{"MEAN_MOTION_DOT":"0.00002521","OBJECT_ID":"2021-005AJ","RA_OF_ASC_NODE":"310.3272","REF_FRAME":"TEME","APOAPSIS":"548.234","SITE":"AFETR","TLE_LINE1":"1 47381U 21005AJ  22265.84336767  .00002521  00000-0  18805-3 0  9997","DECAY_DATE":null,"PERIOD":"95.592","CENTER_NAME":"EARTH","MEAN_ANOMALY":"294.4053","PERIAPSIS":"546.188","COUNTRY_CODE":"US","ARG_OF_PERICENTER":"65.7090","BSTAR":"0.00018805000000","GP_ID":"213258908","EPOCH":"2022-09-22T20:14:26.966688","FILE":"3580594","NORAD_CAT_ID":"47381","ECCENTRICITY":"0.00014770","TIME_SYSTEM":"UTC","MEAN_MOTION":"15.06400743","TLE_LINE2":"2 47381  53.0540 310.3272 0001477  65.7090 294.4053 15.06400743 92903","MEAN_MOTION_DDOT":"0.0000000000000","OBJECT_NAME":"STARLINK-2101","OBJECT_TYPE":"PAYLOAD","ELEMENT_SET_NO":"999","INCLINATION":"53.0540","REV_AT_EPOCH":"9290","EPHEMERIS_TYPE":"0","SEMIMAJOR_AXIS":"6925.346","MEAN_ELEMENT_THEORY":"SGP4","LAUNCH_DATE":"2021-01-20","RCS_SIZE":"LARGE","CLASSIFICATION_TYPE":"U"},{"TLE_LINE1":"1 47382U 21005AK  22265.42178193  .00003020  00000-0  22157-3 0  9999","SITE":"AFETR","PERIOD":"95.592","DECAY_DATE":null,"MEAN_ANOMALY":"286.7840","CENTER_NAME":"EARTH","RA_OF_ASC_NODE":"307.1480","OBJECT_ID":"2021-005AK","MEAN_MOTION_DOT":"0.00003020","REF_FRAME":"TEME","APOAPSIS":"548.295","EPOCH":"2022-09-22T10:07:21.958752","GP_ID":"213227117","NORAD_CAT_ID":"47382","ECCENTRICITY":"0.00015580","FILE":"3580347","ARG_OF_PERICENTER":"73.3320","PERIAPSIS":"546.137","COUNTRY_CODE":"US","BSTAR":"0.00022157000000","OBJECT_NAME":"STARLINK-2102","TLE_LINE2":"2 47382  53.0540 307.1480 0001558  73.3320 286.7840 15.06399121 92905","MEAN_MOTION_DDOT":"0.0000000000000","REV_AT_EPOCH":"9290","INCLINATION":"53.0540","OBJECT_TYPE":"PAYLOAD","ELEMENT_SET_NO":"999","TIME_SYSTEM":"UTC","MEAN_MOTION":"15.06399121","LAUNCH_DATE":"2021-01-20","RCS_SIZE":"LARGE","CLASSIFICATION_TYPE":"U","SEMIMAJOR_AXIS":"6925.351","MEAN_ELEMENT_THEORY":"SGP4","EPHEMERIS_TYPE":"0"},{"SEMIMAJOR_AXIS":"6925.329","MEAN_ELEMENT_THEORY":"SGP4","EPHEMERIS_TYPE":"0","LAUNCH_DATE":"2021-01-20","RCS_SIZE":"LARGE","CLASSIFICATION_TYPE":"U","TIME_SYSTEM":"UTC","MEAN_MOTION":"15.06406227","REV_AT_EPOCH":"9307","INCLINATION":"53.0531","OBJECT_TYPE":"PAYLOAD","ELEMENT_SET_NO":"999","TLE_LINE2":"2 47383  53.0531 296.4653 0001442  60.2907 299.8225 15.06406227 93073","MEAN_MOTION_DDOT":"0.0000000000000","OBJECT_NAME":"STARLINK-2103","BSTAR":"0.00020009000000","ARG_OF_PERICENTER":"60.2907","PERIAPSIS":"546.196","COUNTRY_CODE":"US","NORAD_CAT_ID":"47383","ECCENTRICITY":"0.00014420","FILE":"3580594","GP_ID":"213259418","EPOCH":"2022-09-22T13:44:56.619456","REF_FRAME":"TEME","APOAPSIS":"548.193","RA_OF_ASC_NODE":"296.4653","MEAN_MOTION_DOT":"0.00002701","OBJECT_ID":"2021-005AL","DECAY_DATE":null,"PERIOD":"95.592","CENTER_NAME":"EARTH","MEAN_ANOMALY":"299.8225","TLE_LINE1":"1 47383U 21005AL  22265.57287754  .00002701  00000-0  20009-3 0  9999","SITE":"AFETR"}];
